NORAD_CAT_ID,OBJECT_NAME,OBJECT_TYPE,EPOCH,MEAN_MOTION,ECCENTRICITY,INCLINATION,RA_OF_ASC_NODE,ARG_OF_PERICENTER,MEAN_ANOMALY,BSTAR,MEAN_MOTION_DOT,MEAN_MOTION_DDOT,TLE_LINE0,TLE_LINE1,TLE_LINE2,SEMIMAJOR_AXIS,PERIOD,APOGEE,PERIGEE,DECAYED
53589.0,STARLINK-4673,PAYLOAD,2022-11-05 00:00:00,15.08832575,0.0001495,53.216,324.0552,64.0443,216.9533,-0.0013470999999999,-0.00021659,0.0,0 STARLINK-4673,1 53589U 22104B   22309.00001157 -.00021659  00000-0 -13471-2 0  9992,2 53589  53.2160 324.0552 0001495  64.0443 216.9533 15.08832575  1307,6917.903,95.438,540.802,538.734,0.0
53589.0,STARLINK-4673,PAYLOAD,2022-11-05 14:00:01,15.08806585,0.0001738,53.2153,321.4382,58.7164,152.5841,0.0011539,0.00018107,0.0,0 STARLINK-4673,1 53589U 22104B   22309.58335648  .00018107  00000-0  11539-2 0  9995,2 53589  53.2153 321.4382 0001738  58.7164 152.5841 15.08806585  1300,6917.983,95.44,541.05,538.645,0.0
53589.0,STARLINK-4673,PAYLOAD,2022-11-05 22:00:01,15.08799263,0.0001628,53.2152,319.9402,66.8914,155.9789,0.0036847,0.00058778,0.0,0 STARLINK-4673,1 53589U 22104B   22309.91668981  .00058778  00000-0  36847-2 0  9998,2 53589  53.2152 319.9402 0001628  66.8914 155.9789 15.08799263  1307,6918.005,95.44,540.996,538.744,0.0
53589.0,STARLINK-4673,PAYLOAD,2022-11-06 06:00:00,15.08840836,0.0001728,53.2151,318.4453,63.6703,170.7062,-0.00038617,-6.429e-05,0.0,0 STARLINK-4673,1 53589U 22104B   22310.25001157 -.00006429  00000-0 -38617-3 0  9999,2 53589  53.2151 318.4453 0001728  63.6703 170.7062 15.08840836 10827,6917.878000000002,95.438,540.938,538.547,0.0
53589.0,STARLINK-4673,PAYLOAD,2022-11-06 14:00:01,15.08856809,0.0001694,53.2147,316.9489,59.7094,186.2564,-0.0026332,-0.00041971,0.0,0 STARLINK-4673,1 53589U 22104B   22310.58334491 -.00041971  00000-0 -26332-2 0  9996,2 53589  53.2147 316.9489 0001694  59.7094 186.2564 15.08856809  1304,6917.829000000002,95.436,540.866,538.5219999999998,0.0
53589.0,STARLINK-4673,PAYLOAD,2022-11-07 14:00:01,15.08838595,0.0001614,53.2145,312.4592,57.8323,222.8992,-0.00014838,-2.649e-05,0.0,0 STARLINK-4673,1 53589U 22104B   22311.58334491 -.00002649  00000-0 -14838-3 0  9995,2 53589  53.2145 312.4592 0001614  57.8323 222.8992 15.08838595 11028,6917.885,95.438,540.866,538.633,0.0
53589.0,STARLINK-4673,PAYLOAD,2022-11-07 22:00:00,15.08824476,0.0001541,53.2146,310.961,65.9528,226.3764,0.0030506,0.00048577,0.0,0 STARLINK-4673,1 53589U 22104B   22311.91667824  .00048577  00000-0  30506-2 0  9998,2 53589  53.2146 310.9610 0001541  65.9528 226.3764 15.08824476  1308,6917.928000000001,95.439,540.859,538.727,0.0
53589.0,STARLINK-4673,PAYLOAD,2022-11-08 10:00:01,15.08830974,0.0001622,53.2149,308.7182,57.0642,72.7738,0.0046681999999999,0.00074777,0.0,0 STARLINK-4673,1 53589U 22104B   22312.41668981  .00074777  00000-0  46682-2 0  9992,2 53589  53.2149 308.7182 0001622  57.0642  72.7738 15.08830974 11157,6917.908,95.438,540.895,538.651,0.0
53589.0,STARLINK-4673,PAYLOAD,2022-11-08 14:00:01,15.08875106,0.0001569,53.2147,307.9692,56.6229,258.9444,-1.6027e-05,-5.43e-06,0.0,0 STARLINK-4673,1 53589U 22104B   22312.58334491 -.00000543  00000-0 -16027-4 0  9990,2 53589  53.2147 307.9692 0001569  56.6229 258.9444 15.08875106  1302,6917.773,95.435,540.7230000000002,538.553,0.0
53589.0,STARLINK-4673,PAYLOAD,2022-11-08 22:00:00,15.08874931,0.0001488,53.2151,306.4711,64.6717,262.5347,-0.0006738,-0.00011006,0.0,0 STARLINK-4673,1 53589U 22104B   22312.91667824 -.00011006  00000-0 -67380-3 0  9999,2 53589  53.2151 306.4711 0001488  64.6717 262.5347 15.08874931 11235,6917.774,95.435,540.668,538.609,0.0
53589.0,STARLINK-4673,PAYLOAD,2022-11-09 14:00:01,15.08789761,0.0001535,53.2153,303.4794,54.8207,295.6032,-0.0005627,-9.22e-05,0.0,0 STARLINK-4673,1 53589U 22104B   22313.58334491 -.00009220  00000-0 -56270-3 0  9995,2 53589  53.2153 303.4794 0001535  54.8207 295.6032 15.08789761  1304,6918.034000000002,95.441,540.961,538.837,0.0
53589.0,STARLINK-4673,PAYLOAD,2022-11-09 22:00:01,15.08769165,0.0001481,53.2157,301.9816,63.662,298.3563,0.0033674,0.00053608,0.0,0 STARLINK-4673,1 53589U 22104B   22313.91668981  .00053608  00000-0  33674-2 0  9995,2 53589  53.2157 301.9816 0001481  63.6620 298.3563 15.08769165 11387,6918.097,95.442,540.986,538.937,0.0
53589.0,STARLINK-4673,PAYLOAD,2022-11-10 00:00:00,15.08792068,0.0001511,53.2159,301.6078,63.9165,30.9138,0.0013566,0.0002134,0.0,0 STARLINK-4673,1 53589U 22104B   22314.00001157  .00021340  00000-0  13566-2 0  9998,2 53589  53.2159 301.6078 0001511  63.9165  30.9138 15.08792068  1304,6918.026999999999,95.441,540.937,538.847,0.0
53589.0,STARLINK-4673,PAYLOAD,2022-11-10 14:00:01,15.08828838,0.0001594,53.2159,298.9902,56.8984,328.1399,-0.0011403,-0.00018385,0.0,0 STARLINK-4673,1 53589U 22104B   22314.58334491 -.00018385  00000-0 -11403-2 0  9996,2 53589  53.2159 298.9902 0001594  56.8984 328.1399 15.08828838  1305,6917.915,95.438,540.882,538.677,0.0
53589.0,STARLINK-4673,PAYLOAD,2022-11-10 16:00:00,15.0882628,0.0001546,53.2161,298.6156,60.1944,57.7378,-0.00070123,-0.00011427,0.0,0 STARLINK-4673,1 53589U 22104B   22314.66667824 -.00011427  00000-0 -70123-3 0  9999,2 53589  53.2161 298.6156 0001546  60.1944  57.7378 15.08826280 11499,6917.922,95.438,540.857,538.7180000000002,0.0
53589.0,STARLINK-4673,PAYLOAD,2022-11-10 22:00:00,15.08811843,0.0001523,53.2162,297.4926,65.7025,330.9128,0.0031277,0.00049803,0.0,0 STARLINK-4673,1 53589U 22104B   22314.91667824  .00049803  00000-0  31277-2 0  9990,2 53589  53.2162 297.4926 0001523  65.7025 330.9128 15.08811843  1305,6917.965999999999,95.439,540.885,538.778,0.0
53589.0,STARLINK-4673,PAYLOAD,2022-11-11 06:00:00,15.08841216,0.0001671,53.2162,295.998,59.5367,348.6621,0.00019593,2.832e-05,0.0,0 STARLINK-4673,1 53589U 22104B   22315.25001157  .00002832  00000-0  19593-3 0  9998,2 53589  53.2162 295.9980 0001671  59.5367 348.6621 15.08841216 11584,6917.877,95.437,540.898,538.586,0.0
53589.0,STARLINK-4673,PAYLOAD,2022-11-11 14:00:01,15.08868233,0.0001585999999999,53.2161,294.5009,59.4314,0.3588,-0.0013519,-0.00021756,0.0,0 STARLINK-4673,1 53589U 22104B   22315.58334491 -.00021756  00000-0 -13519-2 0  9993,2 53589  53.2161 294.5009 0001586  59.4314   0.3588 15.08868233  1307,6917.794,95.436,540.756,538.562,0.0
53589.0,STARLINK-4673,PAYLOAD,2022-11-11 22:00:00,15.08856312,0.0001469,53.2164,293.0035,67.3671,4.0468,0.00037383,5.669e-05,0.0,0 STARLINK-4673,1 53589U 22104B   22315.91667824  .00005669  00000-0  37383-3 0  9998,2 53589  53.2164 293.0035 0001469  67.3671   4.0468 15.08856312  1300,6917.831,95.437,540.712,538.679,0.0
53589.0,STARLINK-4673,PAYLOAD,2022-11-12 14:00:01,15.08877112,0.0001541999999999,53.216,290.0117,62.0331,32.6165,-0.003156,-0.00050217,0.0,0 STARLINK-4673,1 53589U 22104B   22316.58334491 -.00050217  00000-0 -31560-2 0  9994,2 53589  53.2160 290.0117 0001542  62.0331  32.6165 15.08877112 11786,6917.767,95.435,540.6990000000002,538.565,0.0
53589.0,STARLINK-4673,PAYLOAD,2022-11-13 00:00:00,15.08844033,0.0001455,53.2162,288.1409,68.7531,130.4127,-0.0009392,-0.00015206,0.0,0 STARLINK-4673,1 53589U 22104B   22317.00001157 -.00015206  00000-0 -93920-3 0  9990,2 53589  53.2162 288.1409 0001455  68.7531 130.4127 15.08844033  1306,6917.868,95.437,540.74,538.727,0.0
53589.0,STARLINK-4673,PAYLOAD,2022-11-13 06:00:02,15.08839565,0.0001498,53.2159,287.0199,60.7873,57.1372,-0.002186,-0.00034909,0.0,0 STARLINK-4673,1 53589U 22104B   22317.25002315 -.00034909  00000-0 -21860-2 0  9998,2 53589  53.2159 287.0199 0001498  60.7873  57.1372 15.08839565 11889,6917.882,95.438,540.783,538.71,0.0
53589.0,STARLINK-4673,PAYLOAD,2022-11-13 14:00:01,15.08826571,0.0001358,53.2155,285.5228,61.3575,68.0846,-0.0010853,-0.00017512,0.0,0 STARLINK-4673,1 53589U 22104B   22317.58334491 -.00017512  00000-0 -10853-2 0  9998,2 53589  53.2155 285.5228 0001358  61.3575  68.0846 15.08826571  1308,6917.920999999999,95.438,540.726,538.847,0.0
53589.0,STARLINK-4673,PAYLOAD,2022-11-13 22:00:00,15.08822745,0.0001348,53.2156,284.0257,69.7595,71.2504,0.0017516,0.00027685,0.0,0 STARLINK-4673,1 53589U 22104B   22317.91667824  .00027685  00000-0  17516-2 0  9997,2 53589  53.2156 284.0257 0001348  69.7595  71.2504 15.08822745  1304,6917.933000000001,95.439,540.731,538.866,0.0
53589.0,STARLINK-4673,PAYLOAD,2022-11-14 14:00:01,15.08864106,0.0001403,53.216,281.0334,59.4949,104.6932,-0.003556,-0.00056475,0.0,0 STARLINK-4673,1 53589U 22104B   22318.58334491 -.00056475  00000-0 -35560-2 0  9992,2 53589  53.2160 281.0334 0001403  59.4949 104.6932 15.08864106 12083,6917.807,95.436,540.6419999999998,538.701,0.0
53589.0,STARLINK-4673,PAYLOAD,2022-11-14 22:00:00,15.08834993,0.0001276,53.2168,279.5356,60.5414,115.2443,0.00023568,3.464e-05,0.0,0 STARLINK-4673,1 53589U 22104B   22318.91667824  .00003464  00000-0  23568-3 0  9992,2 53589  53.2168 279.5356 0001276  60.5414 115.2443 15.08834993  1304,6917.896,95.438,540.643,538.878,0.0
53589.0,STARLINK-4673,PAYLOAD,2022-11-15 08:00:01,15.08806799,0.0001567,53.2153,277.6682,59.983,220.3735,0.0030636,0.00048762,0.0,0 STARLINK-4673,1 53589U 22104B   22319.33335648  .00048762  00000-0  30636-2 0  9998,2 53589  53.2153 277.6682 0001567  59.9830 220.3735 15.08806799 12190,6917.982,95.44,540.931,538.763,0.0
53589.0,STARLINK-4673,PAYLOAD,2022-11-15 14:00:01,15.08846141,0.0001475,53.2149,276.5445,64.0546,134.91,-0.0017742,-0.00028418,0.0,0 STARLINK-4673,1 53589U 22104B   22319.58334491 -.00028418  00000-0 -17742-2 0  9991,2 53589  53.2149 276.5445 0001475  64.0546 134.9100 15.08846141  1301,6917.861999999999,95.437,540.747,538.706,0.0
53589.0,STARLINK-4673,PAYLOAD,2022-11-15 22:00:00,15.08834559,0.000158,53.2151,275.0477,71.0017,139.5519,-0.00057786,-9.472e-05,0.0,0 STARLINK-4673,1 53589U 22104B   22319.91667824 -.00009472  00000-0 -57786-3 0  9999,2 53589  53.2151 275.0477 0001580  71.0017 139.5519 15.08834559 12285,6917.897,95.438,540.855,538.669,0.0
